OBJECT_NAME,OBJECT_ID,EPOCH,MEAN_MOTION,ECCENTRICITY,INCLINATION,RA_OF_ASC_NODE,ARG_OF_PERICENTER,MEAN_ANOMALY,EPHEMERIS_TYPE,CLASSIFICATION_TYPE,NORAD_CAT_ID,ELEMENT_SET_NO,REV_AT_EPOCH,BSTAR,MEAN_MOTION_DOT,MEAN_MOTION_DDOT
GSAT0215 (GALILEO 19),2017-079A,2026-06-15T06:08:26.590848,1.70474552,.00030639,55.0739,221.5600,263.0342,97.0324,0,U,43055,999,5295,0,.56E-6,0
GSAT0216 (GALILEO 20),2017-079B,2026-06-13T18:53:40.298208,1.70474522,.00044684,55.0743,221.6004,275.6764,84.3739,0,U,43056,999,5294,0,.61E-6,0
GSAT0217 (GALILEO 21),2017-079C,2026-06-15T04:20:58.192512,1.70474278,.00044444,55.0707,221.5599,284.3881,75.6642,0,U,43057,999,5295,0,.56E-6,0
GSAT0218 (GALILEO 22),2017-079D,2026-06-13T01:19:09.756192,1.70474471,.00050247,55.0728,221.6159,272.4694,87.5720,0,U,43058,999,5294,0,.61E-6,0
BEIDOU-3 M7 (C27),2018-003A,2026-06-12T12:25:43.718304,1.86228217,.00049085,54.3326,302.4785,93.1066,266.9324,0,U,43107,999,5726,0,-.69E-6,0
BEIDOU-3 M8 (C28),2018-003B,2026-06-15T16:25:34.422816,1.86230980,.00025966,54.3221,302.3497,261.7329,98.2226,0,U,43108,999,5733,0,-.71E-6,0
BEIDOU-3 M4 (C22),2018-018A,2026-06-13T23:30:36.291744,1.86230844,.00077969,56.6477,63.2545,19.0870,340.9711,0,U,43207,999,5668,0,-.54E-6,0
BEIDOU-3 M3 (C21),2018-018B,2026-06-13T12:13:06.492288,1.86230755,.00086812,56.6473,63.2743,341.1223,18.8726,0,U,43208,999,5667,0,-.55E-6,0
BEIDOU-3 M9 (C29),2018-029A,2026-06-15T20:59:37.620672,1.86228026,.00009985,54.1952,299.9946,157.7583,202.2335,0,U,43245,999,5587,0,-.68E-6,0
BEIDOU-3 M10 (C30),2018-029B,2026-06-12T14:05:47.607648,1.86229309,.00039027,54.1961,300.1366,39.2234,320.7882,0,U,43246,999,5579,0,-.68E-6,0
IRNSS-1I,2018-035A,2026-06-15T20:09:20.172384,1.00272046,.00178117,28.7520,74.2167,181.5598,5.5147,0,U,43286,999,3006,0,.62E-6,0
COSMOS 2527 (756),2018-053A,2026-06-15T04:58:58.563264,2.13102160,.00071909,65.5763,73.9738,240.2222,119.7330,0,U,43508,999,6223,0,-.24E-6,0
BEIDOU-2 IGSO-7 (C16),2018-057A,2026-06-15T22:07:43.170816,1.00251416,.01050678,55.1938,163.0687,238.0100,305.1025,0,U,43539,999,2911,0,-.27E-6,0
GSAT0221 (GALILEO 25),2018-060A,2026-06-15T21:24:12.203424,1.70475876,.00026131,57.1691,341.8152,304.4018,55.5708,0,U,43564,999,4914,0,-.84E-6,0
GSAT0222 (GALILEO 26),2018-060B,2026-06-15T12:35:49.498944,1.70475624,.00019647,57.1732,341.8288,249.0042,110.9733,0,U,43565,999,4918,0,-.83E-6,0
GSAT0219 (GALILEO 23),2018-060C,2026-06-13T23:39:52.959168,1.70475843,.00021097,57.1733,341.8717,326.6126,33.3787,0,U,43566,999,4913,0,-.76E-6,0
GSAT0220 (GALILEO 24),2018-060D,2026-06-14T04:58:05.819520,1.70475528,.00021572,57.1756,341.8658,311.2111,48.7740,0,U,43567,999,4912,0,-.77E-6,0
BEIDOU-3 M5 (C23),2018-062A,2026-06-14T23:01:22.734624,1.86228546,.00055794,54.0853,182.3799,288.5784,71.4097,0,U,43581,999,5359,0,.9E-6,0
BEIDOU-3 M6 (C24),2018-062B,2026-06-15T08:37:58.723680,1.86227634,.00049181,54.0850,182.3554,8.9960,351.0582,0,U,43582,999,5360,0,.83E-6,0
BEIDOU-3 M12 (C26),2018-067A,2026-06-14T18:16:04.040832,1.86227714,.00077355,54.1799,181.1228,29.8475,330.2441,0,U,43602,999,5307,0,.93E-6,0
BEIDOU-3 M11 (C25),2018-067B,2026-06-14T08:37:19.994880,1.86227183,.00044374,54.1775,181.0999,12.9310,347.1309,0,U,43603,999,5309,0,.99E-6,0
BEIDOU-3 M13 (C32),2018-072A,2026-06-13T18:39:05.367744,1.86231394,.00073575,56.6216,62.7728,328.6161,31.3689,0,U,43622,999,5259,0,-.55E-6,0
BEIDOU-3 M14 (C33),2018-072B,2026-06-15T06:04:58.479168,1.86231360,.00061626,56.6245,62.7184,359.3015,0.7328,0,U,43623,999,5261,0,-.52E-6,0
BEIDOU-3 M16 (C35),2018-078A,2026-06-15T09:48:40.173984,1.86232181,.00072031,54.0916,300.0484,40.9057,319.1342,0,U,43647,999,5212,0,-.68E-6,0
BEIDOU-3 M15 (C34),2018-078B,2026-06-14T11:08:25.881216,1.86232267,.00042043,54.0883,300.0818,57.5981,302.4264,0,U,43648,999,5212,0,-.68E-6,0
BEIDOU-3 G1 (C59),2018-085A,2026-06-15T22:22:34.246848,1.00270364,.00080423,2.8642,97.4125,349.2202,313.1789,0,U,43683,999,2804,0,-.11E-5,0
COSMOS 2529 (757),2018-086A,2026-06-14T08:46:30.601344,2.13101901,.0012019,64.2947,192.6898,256.4498,103.4890,0,U,43687,999,5922,0,.103E-5,0
BEIDOU-3 M17 (C36),2018-093A,2026-06-15T10:11:57.924672,1.86228310,.00101528,54.1689,182.3560,291.9133,243.9485,0,U,43706,999,5150,0,.82E-6,0
BEIDOU-3 M18 (C37),2018-093B,2026-06-15T00:37:25.058208,1.86226530,.00079082,54.1697,182.3617,320.4950,39.4955,0,U,43707,999,5149,0,.89E-6,0
GPS BIII-1  (PRN 04),2018-109A,2026-06-15T00:51:32.210208,2.00561368,.00381459,55.6807,92.2717,198.0001,172.3583,0,U,43873,999,5503,0,-.24E-6,0
BEIDOU-3 IGSO-1 (C38),2019-023A,2026-06-06T22:54:10.040832,1.00294886,.00254341,58.6799,37.7569,225.6649,92.8731,0,U,44204,999,710,0,-.215E-5,0
